STARLINK-35833          
1 66542U 25265AC  25329.66673610 -.01540787  68297-3 -39465-2 0  9997
2 66542  43.0016 156.7487 0001738 274.0355 117.0647 15.94464628  2256
STARLINK-35315          
1 66543U 25265AD  25329.66673610 -.01554267  69448-3 -39664-2 0  9996
2 66543  43.0016 156.7442 0001838 273.5115 119.1528 15.94535118  2149
STARLINK-35728          
1 66544U 25265AE  25329.66673610 -.01567702  70606-3 -39863-2 0  9994
2 66544  43.0014 156.7410 0001795 271.3258 122.7611 15.94604380  2252
SHIJIAN-30A             
1 66545U 25266A   25329.80825690  .00012807  00000+0  67814-3 0  9992
2 66545  51.7988  52.1613 0012921 296.9289  63.0367 15.15677495  1011
SHIJIAN-30B             
1 66546U 25266B   25329.80935001  .00015016  00000+0  79942-3 0  9991
2 66546  51.7969  52.1678 0010640 297.1003  62.8887 15.15371747  1010
SHIJIAN-30C             
1 66547U 25266C   25329.81036534  .00009969  00000+0  53867-3 0  9994
2 66547  51.7982  52.1744 0011276 289.0255  70.9500 15.15227566  1016
CZ-2C R/B               
1 66548U 25266D   25329.48713831  .00014634  00000+0  46126-3 0  9995
2 66548  52.0562  53.4401 0085284 114.1542 246.8390 15.29633122   975
GLOBAL-33               
1 66554U 25267A   25329.24933241  .00013803  00000+0  45750-3 0  9995
2 66554  42.0190 157.9247 0006457 295.9225  64.0946 15.31053705   723
ELECTRON KICK STAGE R/B 
1 66555U 25267B   25329.24754177  .00027337  00000+0  87834-3 0  9991
2 66555  42.0175 157.9146 0008126 293.8846  66.1139 15.31695004   727
ELECTRON R/B            
1 66556U 25267C   25325.68896391  .00330020  73273-5  18540-3 0  9993
2 66556  42.0620 178.0185 0218594 275.5638  82.0326 15.83492186   186
TJS-21                  
1 66586U 25269A   25326.02704417  .00003197  00000+0  53570-3 0  9990
2 66586  51.0366 174.7096 7517987 225.0489  41.6572  2.00992210    24
CZ-3B R/B               
1 66587U 25269B   25327.51390516  .00010320 -91384-6  49597-3 0  9990
2 66587  51.3768 174.0599 7525341 225.2938  41.2116  2.01516013    67
